[Satellite]
VERSION=1.1
NAME=COSMOS 2475 (743)
NICKNAME=COSMOS 2475 (743)
TLE1=1 37869U 11064C   15055.20115093  .00000061  00000-0  00000+0 0  9998
TLE2=2 37869  64.5260 212.8188 0018615 282.8049 306.9461  2.13102074 25749
